[{"OBJECT_NAME":"STARLINK-31698","OBJECT_ID":"2024-062F","EPOCH":"2026-03-09T19:58:40.732032","MEAN_MOTION":15.30183968,"ECCENTRICITY":0.00012569,"INCLINATION":53.1603,"RA_OF_ASC_NODE":254.9886,"ARG_OF_PERICENTER":88.3549,"MEAN_ANOMALY":271.7596,"EPHEMERIS_TYPE":0,"CLASSIFICATION_TYPE":"U","NORAD_CAT_ID":59379,"ELEMENT_SET_NO":999,"REV_AT_EPOCH":10965,"BSTAR":9.91931e-6,"MEAN_MOTION_DOT":-6.5e-7,"MEAN_MOTION_DDOT":0},{"OBJECT_NAME":"COSMOS 1953","OBJECT_ID":"1988-050A","EPOCH":"2026-03-09T18:09:26.993952","MEAN_MOTION":15.28528086,"ECCENTRICITY":0.00124769,"INCLINATION":82.5105,"RA_OF_ASC_NODE":158.18,"ARG_OF_PERICENTER":122.2454,"MEAN_ANOMALY":237.9996,"EPHEMERIS_TYPE":0,"CLASSIFICATION_TYPE":"U","NORAD_CAT_ID":19210,"ELEMENT_SET_NO":999,"REV_AT_EPOCH":3779,"BSTAR":0.00029210954,"MEAN_MOTION_DOT":8.158e-5,"MEAN_MOTION_DDOT":0}]
